{"type": "FeatureCollection", "features": [ {"type": "Feature", "properties": {"norad_id": 37867, "name": "COSMOS 2476 (744)", "group": "gnss", "lat": 42.89345110907774, "lon": 104.44154024369301, "alt_km": 19186.662023930974, "timestamp": "2025-12-17T21:39:45.932745+00:00", "meta": {"OBJECT_NAME": "COSMOS 2476 (744)", "OBJECT_ID": "2011-064A", "EPOCH": "2025-12-17T08:37:38.728128", "MEAN_MOTION": 2.13103706, "ECCENTRICITY": 0.00243783, "INCLINATION": 65.1645, "RA_OF_ASC_NODE": 79.0153, "ARG_OF_PERICENTER": 234.8774, "MEAN_ANOMALY": 116.9996, "EPHEMERIS_TYPE": 0, "CLASSIFICATION_TYPE": "U", "NORAD_CAT_ID": 37867, "ELEMENT_SET_NO": 999, "REV_AT_EPOCH": 10988, "BSTAR": 0, "MEAN_MOTION_DOT": -4.8e-07, "MEAN_MOTION_DDOT": 0}, "tle": {"line1": "1 37867U 11064A   25351.35947602 -.00000048  00000+0  00000+0 0  9996", "line2": "2 37867  65.1645  79.0153 0024378 234.8774 116.9996  2.13103706109884"}}, "geometry": {"type": "Point", "coordinates": [104.44154024369301, 42.89345110907774]}}, {"type": "Feature", "properties": {"norad_id": 37868, "name": "COSMOS 2477 (745)", "group": "gnss", "lat": -43.63427723229324, "lon": -74.77348680350556, "alt_km": 19081.381635263857, "timestamp": "2025-12-17T21:39:45.932755+00:00", "meta": {"OBJECT_NAME": "COSMOS 2477 (745)", "OBJECT_ID": "2011-064B", "EPOCH": "2025-12-15T06:06:12.573216", "MEAN_MOTION": 2.1310289, "ECCENTRICITY": 0.00211455, "INCLINATION": 65.1707, "RA_OF_ASC_NODE": 79.1637, "ARG_OF_PERICENTER": 234.5873, "MEAN_ANOMALY": 123.1925, "EPHEMERIS_TYPE": 0, "CLASSIFICATION_TYPE": "U", "NORAD_CAT_ID": 37868, "ELEMENT_SET_NO": 999, "REV_AT_EPOCH": 10983, "BSTAR": 0, "MEAN_MOTION_DOT": -5.6e-07, "MEAN_MOTION_DDOT": 0}, "tle": {"line1": "1 37868U 11064B   25349.25431219 -.00000056  00000+0  00000+0 0  9994", "line2": "2 37868  65.1707  79.1637 0021145 234.5873 123.1925  2.13102890109838"}}, "geometry": {"type": "Point", "coordinates": [-74.77348680350556, -43.63427723229324]}}, {"type": "Feature", "properties": {"norad_id": 37869, "name": "COSMOS 2475 (743)", "group": "gnss", "lat": -4.685856811973338, "lon": -98.72689290656554, "alt_km": 19101.002482885055, "timestamp": "2025-12-17T21:39:45.932774+00:00", "meta": {"OBJECT_NAME": "COSMOS 2475 (743)", "OBJECT_ID": "2011-064C", "EPOCH": "2025-12-16T17:15:16.173216", "MEAN_MOTION": 2.1310159, "ECCENTRICITY": 0.00263578, "INCLINATION": 65.1784, "RA_OF_ASC_NODE": 79.1342, "ARG_OF_PERICENTER": 248.7608, "MEAN_ANOMALY": 108.5583, "EPHEMERIS_TYPE": 0, "CLASSIFICATION_TYPE": "U", "NORAD_CAT_ID": 37869, "ELEMENT_SET_NO": 999, "REV_AT_EPOCH": 10987, "BSTAR": 0, "MEAN_MOTION_DOT": -5.2e-07, "MEAN_MOTION_DDOT": 0}, "tle": {"line1": "1 37869U 11064C   25350.71893719 -.00000052  00000+0  00000+0 0  9991", "line2": "2 37869  65.1784  79.1342 0026357 248.7608 108.5583  2.13101590109877"}}, "geometry": {"type": "Point", "coordinates": [-98.72689290656554, -4.685856811973338]}}, {"type": "Feature", "properties": {"norad_id": 37948, "name": "BEIDOU-2 IGSO-5 (C10)", "group": "gnss", "lat": -35.54018005809265, "lon": 133.7066570774518, "alt_km": 35328.65598336574, "timestamp": "2025-12-17T21:39:45.932785+00:00", "meta": {"OBJECT_NAME": "BEIDOU-2 IGSO-5 (C10)", "OBJECT_ID": "2011-073A", "EPOCH": "2025-12-17T16:24:35.912736", "MEAN_MOTION": 1.00290385, "ECCENTRICITY": 0.01100136, "INCLINATION": 48.0109, "RA_OF_ASC_NODE": 273.7976, "ARG_OF_PERICENTER": 222.3587, "MEAN_ANOMALY": 289.8191, "EPHEMERIS_TYPE": 0, "CLASSIFICATION_TYPE": "U", "NORAD_CAT_ID": 37948, "ELEMENT_SET_NO": 999, "REV_AT_EPOCH": 5131, "BSTAR": 0, "MEAN_MOTION_DOT": -1.81e-06, "MEAN_MOTION_DDOT": 0}, "tle": {"line1": "1 37948U 11073A   25351.68374899 -.00000181  00000+0  00000+0 0  9992", "line2": "2 37948  48.0109 273.7976 0110013 222.3587 289.8191  1.00290385 51317"}}, "geometry": {"type": "Point", "coordinates": [133.7066570774518, -35.54018005809265]}}, {"type": "Feature", "properties": {"norad_id": 37951, "name": "LUCH 5A (SDCM/PRN 140)", "group": "gnss", "lat": 5.044685398981838, "lon": -140.90175256193461, "alt_km": 35767.43954257827, "timestamp": "2025-12-17T21:39:45.932795+00:00", "meta": {"OBJECT_NAME": "LUCH 5A (SDCM/PRN 140)", "OBJECT_ID": "2011-074B", "EPOCH": "2025-12-17T12:36:44.335296", "MEAN_MOTION": 1.00275835, "ECCENTRICITY": 0.000532, "INCLINATION": 8.2913, "RA_OF_ASC_NODE": 76.5161, "ARG_OF_PERICENTER": 183.8812, "MEAN_ANOMALY": 182.3148, "EPHEMERIS_TYPE": 0, "CLASSIFICATION_TYPE": "U", "NORAD_CAT_ID": 37951, "ELEMENT_SET_NO": 999, "REV_AT_EPOCH": 5123, "BSTAR": 0, "MEAN_MOTION_DOT": -3e-07, "MEAN_MOTION_DDOT": 0}, "tle": {"line1": "1 37951U 11074B   25351.52551314 -.00000030  00000+0  00000+0 0  9992", "line2": "2 37951   8.2913  76.5161 0005320 183.8812 182.3148  1.00275835 51236"}}, "geometry": {"type": "Point", "coordinates": [-140.90175256193461, 5.044685398981838]}}, {"type": "Feature", "properties": {"norad_id": 38091, "name": "BEIDOU-2 G5 (C05)", "group": "gnss", "lat": 2.0214706248767365, "lon": 110.49608170619642, "alt_km": 35840.73105674, "timestamp": "2025-12-17T21:39:45.932806+00:00", "meta": {"OBJECT_NAME": "BEIDOU-2 G5 (C05)", "OBJECT_ID": "2012-008A", "EPOCH": "2025-12-17T17:01:53.754816", "MEAN_MOTION": 1.0026798, "ECCENTRICITY": 0.0013014, "INCLINATION": 3.1209, "RA_OF_ASC_NODE": 70.6969, "ARG_OF_PERICENTER": 231.4196, "MEAN_ANOMALY": 98.7456, "EPHEMERIS_TYPE": 0, "CLASSIFICATION_TYPE": "U", "NORAD_CAT_ID": 38091, "ELEMENT_SET_NO": 999, "REV_AT_EPOCH": 5054, "BSTAR": 0, "MEAN_MOTION_DOT": 7.9e-07, "MEAN_MOTION_DDOT": 0}, "tle": {"line1": "1 38091U 12008A   25351.70964994  .00000079  00000+0  00000+0 0  9990", "line2": "2 38091   3.1209  70.6969 0013014 231.4196  98.7456  1.00267980 50546"}}, "geometry": {"type": "Point", "coordinates": [110.49608170619642, 2.0214706248767365]}}, {"type": "Feature", "properties": {"norad_id": 38250, "name": "BEIDOU-2 M3 (C11)", "group": "gnss", "lat": 33.97726890795847, "lon": 103.83122542721418, "alt_km": 21573.76537550433, "timestamp": "2025-12-17T21:39:45.932818+00:00", "meta": {"OBJECT_NAME": "BEIDOU-2 M3 (C11)", "OBJECT_ID": "2012-018A", "EPOCH": "2025-12-17T03:50:10.442976", "MEAN_MOTION": 1.86229975, "ECCENTRICITY": 0.00242741, "INCLINATION": 55.916, "RA_OF_ASC_NODE": 311.0085, "ARG_OF_PERICENTER": 274.6832, "MEAN_ANOMALY": 85.0247, "EPHEMERIS_TYPE": 0, "CLASSIFICATION_TYPE": "U", "NORAD_CAT_ID": 38250, "ELEMENT_SET_NO": 999, "REV_AT_EPOCH": 9255, "BSTAR": 0, "MEAN_MOTION_DOT": -9.2e-07, "MEAN_MOTION_DDOT": 0}, "tle": {"line1": "1 38250U 12018A   25351.15984309 -.00000092  00000+0  00000+0 0  9995", "line2": "2 38250  55.9160 311.0085 0024274 274.6832  85.0247  1.86229975 92551"}}, "geometry": {"type": "Point", "coordinates": [103.83122542721418, 33.97726890795847]}}, {"type": "Feature", "properties": {"norad_id": 38251, "name": "BEIDOU-2 M4 (C12)", "group": "gnss", "lat": -2.672109408095295, "lon": 132.004997538915, "alt_km": 21532.20982503335, "timestamp": "2025-12-17T21:39:45.932828+00:00", "meta": {"OBJECT_NAME": "BEIDOU-2 M4 (C12)", "OBJECT_ID": "2012-018B", "EPOCH": "2025-12-17T02:12:20.700000", "MEAN_MOTION": 1.86229502, "ECCENTRICITY": 0.00154788, "INCLINATION": 55.8177, "RA_OF_ASC_NODE": 310.2391, "ARG_OF_PERICENTER": 277.6479, "MEAN_ANOMALY": 82.1616, "EPHEMERIS_TYPE": 0, "CLASSIFICATION_TYPE": "U", "NORAD_CAT_ID": 38251, "ELEMENT_SET_NO": 999, "REV_AT_EPOCH": 9255, "BSTAR": 0, "MEAN_MOTION_DOT": -9.2e-07, "MEAN_MOTION_DDOT": 0}, "tle": {"line1": "1 38251U 12018B   25351.09190625 -.00000092  00000+0  00000+0 0  9999", "line2": "2 38251  55.8177 310.2391 0015478 277.6479  82.1616  1.86229502 92550"}}, "geometry": {"type": "Point", "coordinates": [132.004997538915, -2.672109408095295]}}, {"type": "Feature", "properties": {"norad_id": 38652, "name": "SES-5 (EGNOS/PRN 136)", "group": "gnss", "lat": 0.07618355153003448, "lon": 56.698063875073785, "alt_km": 35793.04574703573, "timestamp": "2025-12-17T21:39:45.932839+00:00", "meta": {"OBJECT_NAME": "SES-5 (EGNOS/PRN 136)", "OBJECT_ID": "2012-036A", "EPOCH": "2025-12-17T13:20:59.908416", "MEAN_MOTION": 1.00272168, "ECCENTRICITY": 0.00019205, "INCLINATION": 0.0574, "RA_OF_ASC_NODE": 305.7555, "ARG_OF_PERICENTER": 320.1954, "MEAN_ANOMALY": 25.7148, "EPHEMERIS_TYPE": 0, "CLASSIFICATION_TYPE": "U", "NORAD_CAT_ID": 38652, "ELEMENT_SET_NO": 999, "REV_AT_EPOCH": 4263, "BSTAR": 0, "MEAN_MOTION_DOT": 5.9e-07, "MEAN_MOTION_DDOT": 0}, "tle": {"line1": "1 38652U 12036A   25351.55624894  .00000059  00000+0  00000+0 0  9997", "line2": "2 38652   0.0574 305.7555 0001920 320.1954  25.7148  1.00272168 42637"}}, "geometry": {"type": "Point", "coordinates": [56.698063875073785, 0.07618355153003448]}}, {"type": "Feature", "properties": {"norad_id": 38775, "name": "BEIDOU-2 M6 (C14)", "group": "gnss", "lat": 14.430450224223476, "lon": 78.74996536935616, "alt_km": 21500.19230145343, "timestamp": "2025-12-17T21:39:45.932849+00:00", "meta": {"OBJECT_NAME": "BEIDOU-2 M6 (C14)", "OBJECT_ID": "2012-050B", "EPOCH": "2025-12-16T06:22:47.654112", "MEAN_MOTION": 1.86230757, "ECCENTRICITY": 0.00113185, "INCLINATION": 56.3814, "RA_OF_ASC_NODE": 68.9504, "ARG_OF_PERICENTER": 343.5807, "MEAN_ANOMALY": 16.4038, "EPHEMERIS_TYPE": 0, "CLASSIFICATION_TYPE": "U", "NORAD_CAT_ID": 38775, "ELEMENT_SET_NO": 999, "REV_AT_EPOCH": 8990, "BSTAR": 0, "MEAN_MOTION_DOT": -8e-07, "MEAN_MOTION_DDOT": 0}, "tle": {"line1": "1 38775U 12050B   25350.26582933 -.00000080  00000+0  00000+0 0  9998", "line2": "2 38775  56.3814  68.9504 0011318 343.5807  16.4038  1.86230757 89902"}}, "geometry": {"type": "Point", "coordinates": [78.74996536935616, 14.430450224223476]}}]}